1 55140U 23004A 26162.26219457 .00000038 00000+0 65676-4 0 9991 
2 55140 87.9137 7.0437 0002196 89.7493 270.3890 13.17648620166809 
1 55141U 23004B 26161.97725567 .00000481 00000+0 13005-2 0 9992 
2 55141 87.8945 351.9059 0001880 83.2697 276.8646 13.12443180167249 
1 55142U 23004C 26162.15485601 .00000175 00000+0 45772-3 0 9993 
2 55142 87.8899 22.2583 0001835 90.1061 270.0278 13.11416385165151 
1 55143U 23004D 26162.24550118 .00000014 00000+0 35641-5 0 9998 
2 55143 87.9158 336.6524 0001617 88.8113 271.3204 13.18684987168910 
1 55144U 23004E 26162.23875993 .00000003 00000+0 -25832-4 0 9998 
2 55144 87.9156 336.6535 0001674 96.2936 263.8387 13.18685350168913 
1 55145U 23004F 26162.23201871 .00000018 00000+0 11883-4 0 9993 
2 55145 87.9157 336.6441 0001585 96.3061 263.8251 13.18686453168928 
1 55146U 23004G 26162.22527097 .00000052 00000+0 99354-4 0 9991 
2 55146 87.9148 336.6741 0001941 104.4529 255.6818 13.18684721168911 
1 55147U 23004H 26161.99090143 .00000044 00000+0 78307-4 0 9998 
2 55147 87.9158 336.7044 0001784 103.5494 256.5837 13.18685377168881 
1 55148U 23004J 26162.14244724 -.00000014 00000+0 -72930-4 0 9998 
2 55148 87.8957 321.4230 0001336 123.7770 236.3487 13.13469166169384 
1 55149U 23004K 26161.98245794 .00000050 00000+0 93600-4 0 9993 
2 55149 87.9156 336.7038 0002226 96.2778 263.8608 13.18684584168874 
1 55150U 23004L 26162.20335827 .00000049 00000+0 91617-4 0 9992 
2 55150 87.9156 336.6592 0001966 130.4669 229.6635 13.18687771168916 
1 55151U 23004M 26162.06475761 .00000024 00000+0 29109-4 0 9999 
2 55151 87.9135 7.0838 0001892 93.6049 266.5299 13.17648113166679 
1 55152U 23004N 26162.04485166 .00000046 00000+0 83435-4 0 9994 
2 55152 87.9158 336.6921 0001996 117.9652 242.1682 13.18685728168889 
1 55153U 23004P 26162.18985611 .00000017 00000+0 11508-4 0 9990 
2 55153 87.9156 336.6634 0002292 98.7312 261.4080 13.18685068168904 
1 55154U 23004Q 26162.13281794 .00000474 00000+0 13010-2 0 9992 
2 55154 87.8890 22.2742 0001467 107.5917 252.5372 13.11418650165108 
1 55155U 23004R 26162.10188523 .00000028 00000+0 40121-4 0 9996 
2 55155 87.9136 7.0748 0001625 86.5563 273.5755 13.17648417166683 
